GXIBA-1                 
1 67684U 98067YA  26076.86189178  .00060522  00000+0  86157-3 0  9994
2 67684  51.6316  30.7297 0011749 204.5716 155.4717 15.55683009  6064
CORAL                   
1 67685U 98067YB  26076.89763126  .00032846  00000+0  52195-3 0  9992
2 67685  51.6322  30.9670 0011588 211.5469 148.4828 15.52946399  6069
ISS OBJECT YC           
1 67686U 98067YC  26076.18125465  .00042474  00000+0  65716-3 0  9994
2 67686  51.6318  34.4356 0008506 178.1520 181.9503 15.53596478  5956
LEOPARD                 
1 67687U 98067YD  26076.96519413  .00032244  00000+0  51739-3 0  9995
2 67687  51.6319  30.6704 0008202 184.5127 175.5790 15.52722924  5997
ISS OBJECT YE           
1 67688U 98067YE  26076.18513148  .00039222  00000+0  61484-3 0  9990
2 67688  51.6319  34.4615 0008254 178.8227 181.2784 15.53273796  5878
CREW DRAGON 12          
1 67796U 26031A   26076.83874734  .00009567  00000+0  18567-3 0  9998
2 67796  51.6336  32.0723 0006231 202.9067 157.1644 15.48349303557517
