CCSDS_OMM_VERS = 2.0
CREATION_DATE  = 
ORIGINATOR     = 

OBJECT_NAME    = GXIBA-1
OBJECT_ID      = 1998-067YA
CENTER_NAME    = EARTH
REF_FRAME      = TEME
TIME_SYSTEM    = UTC
MEAN_ELEMENT_THEORY = SGP/SGP4

EPOCH          = 2026-03-17T20:41:07.449792
MEAN_MOTION    = 15.55683009
ECCENTRICITY   = .00117498
INCLINATION    = 51.6316
RA_OF_ASC_NODE = 30.7297
ARG_OF_PERICENTER = 204.5716
MEAN_ANOMALY   = 155.4717

EPHEMERIS_TYPE = 0
CLASSIFICATION_TYPE = U
NORAD_CAT_ID   = 67684
ELEMENT_SET_NO = 999
REV_AT_EPOCH   = 606
BSTAR          = .86157327E-3
MEAN_MOTION_DOT = .60522E-3
MEAN_MOTION_DDOT = 0

CCSDS_OMM_VERS = 2.0
CREATION_DATE  = 
ORIGINATOR     = 

OBJECT_NAME    = CORAL
OBJECT_ID      = 1998-067YB
CENTER_NAME    = EARTH
REF_FRAME      = TEME
TIME_SYSTEM    = UTC
MEAN_ELEMENT_THEORY = SGP/SGP4

EPOCH          = 2026-03-17T21:32:35.340864
MEAN_MOTION    = 15.52946399
ECCENTRICITY   = .00115886
INCLINATION    = 51.6322
RA_OF_ASC_NODE = 30.9670
ARG_OF_PERICENTER = 211.5469
MEAN_ANOMALY   = 148.4828

EPHEMERIS_TYPE = 0
CLASSIFICATION_TYPE = U
NORAD_CAT_ID   = 67685
ELEMENT_SET_NO = 999
REV_AT_EPOCH   = 606
BSTAR          = .52194645E-3
MEAN_MOTION_DOT = .32846E-3
MEAN_MOTION_DDOT = 0

CCSDS_OMM_VERS = 2.0
CREATION_DATE  = 
ORIGINATOR     = 

OBJECT_NAME    = ISS OBJECT YC
OBJECT_ID      = 1998-067YC
CENTER_NAME    = EARTH
REF_FRAME      = TEME
TIME_SYSTEM    = UTC
MEAN_ELEMENT_THEORY = SGP/SGP4

EPOCH          = 2026-03-17T04:21:00.401760
MEAN_MOTION    = 15.53596478
ECCENTRICITY   = .0008506
INCLINATION    = 51.6318
RA_OF_ASC_NODE = 34.4356
ARG_OF_PERICENTER = 178.1520
MEAN_ANOMALY   = 181.9503

EPHEMERIS_TYPE = 0
CLASSIFICATION_TYPE = U
NORAD_CAT_ID   = 67686
ELEMENT_SET_NO = 999
REV_AT_EPOCH   = 595
BSTAR          = .65715727E-3
MEAN_MOTION_DOT = .42474E-3
MEAN_MOTION_DDOT = 0

CCSDS_OMM_VERS = 2.0
CREATION_DATE  = 
ORIGINATOR     = 

OBJECT_NAME    = LEOPARD
OBJECT_ID      = 1998-067YD
CENTER_NAME    = EARTH
REF_FRAME      = TEME
TIME_SYSTEM    = UTC
MEAN_ELEMENT_THEORY = SGP/SGP4

EPOCH          = 2026-03-17T23:09:52.772832
MEAN_MOTION    = 15.52722924
ECCENTRICITY   = .00082025
INCLINATION    = 51.6319
RA_OF_ASC_NODE = 30.6704
ARG_OF_PERICENTER = 184.5127
MEAN_ANOMALY   = 175.5790

EPHEMERIS_TYPE = 0
CLASSIFICATION_TYPE = U
NORAD_CAT_ID   = 67687
ELEMENT_SET_NO = 999
REV_AT_EPOCH   = 599
BSTAR          = .5173936E-3
MEAN_MOTION_DOT = .32244E-3
MEAN_MOTION_DDOT = 0

CCSDS_OMM_VERS = 2.0
CREATION_DATE  = 
ORIGINATOR     = 

OBJECT_NAME    = ISS OBJECT YE
OBJECT_ID      = 1998-067YE
CENTER_NAME    = EARTH
REF_FRAME      = TEME
TIME_SYSTEM    = UTC
MEAN_ELEMENT_THEORY = SGP/SGP4

EPOCH          = 2026-03-17T04:26:35.359872
MEAN_MOTION    = 15.53273796
ECCENTRICITY   = .00082543
INCLINATION    = 51.6319
RA_OF_ASC_NODE = 34.4615
ARG_OF_PERICENTER = 178.8227
MEAN_ANOMALY   = 181.2784

EPHEMERIS_TYPE = 0
CLASSIFICATION_TYPE = U
NORAD_CAT_ID   = 67688
ELEMENT_SET_NO = 999
REV_AT_EPOCH   = 587
BSTAR          = .6148397E-3
MEAN_MOTION_DOT = .39222E-3
MEAN_MOTION_DDOT = 0

CCSDS_OMM_VERS = 2.0
CREATION_DATE  = 
ORIGINATOR     = 

OBJECT_NAME    = CREW DRAGON 12
OBJECT_ID      = 2026-031A
CENTER_NAME    = EARTH
REF_FRAME      = TEME
TIME_SYSTEM    = UTC
MEAN_ELEMENT_THEORY = SGP/SGP4

EPOCH          = 2026-03-17T20:07:47.770176
MEAN_MOTION    = 15.48349303
ECCENTRICITY   = .00062316
INCLINATION    = 51.6336
RA_OF_ASC_NODE = 32.0723
ARG_OF_PERICENTER = 202.9067
MEAN_ANOMALY   = 157.1644

EPHEMERIS_TYPE = 0
CLASSIFICATION_TYPE = U
NORAD_CAT_ID   = 67796
ELEMENT_SET_NO = 999
REV_AT_EPOCH   = 55751
BSTAR          = .1856658E-3
MEAN_MOTION_DOT = .9567E-4
MEAN_MOTION_DDOT = 0

